OBJECT_NAME,OBJECT_ID,EPOCH,MEAN_MOTION,ECCENTRICITY,INCLINATION,RA_OF_ASC_NODE,ARG_OF_PERICENTER,MEAN_ANOMALY,EPHEMERIS_TYPE,CLASSIFICATION_TYPE,NORAD_CAT_ID,ELEMENT_SET_NO,REV_AT_EPOCH,BSTAR,MEAN_MOTION_DOT,MEAN_MOTION_DDOT
FENGYUN 3D,2017-072A,2026-06-09T04:24:32.021280,14.19738980,.0002639,99.0126,134.4616,74.5875,285.5591,0,U,43010,999,44385,.16992E-3,.313E-5,0
NOAA 20 (JPSS-1),2017-073A,2026-06-09T02:33:52.367904,14.19510284,.0000438,98.7771,99.6414,43.3555,316.7656,0,U,43013,999,44332,.4288E-4,.46E-6,0
GOES 17,2018-022A,2026-06-09T02:38:45.637152,1.00271617,.0000581,0.9157,85.8611,12.6123,109.2210,0,U,43226,999,3034,0,-.166E-5,0
SENTINEL-3B,2018-039A,2026-06-09T04:40:38.934048,14.26739527,.0000843,98.6249,227.8417,78.6879,281.4396,0,U,43437,999,42298,.56315E-4,.93E-6,0
FENGYUN 2H,2018-050A,2026-06-09T01:44:16.848672,1.00271216,.0001581,3.0094,79.1692,126.3944,157.4108,0,U,43491,999,2935,0,-.114E-5,0
METOP-C,2018-087A,2026-06-09T04:25:53.964768,14.21509952,.0001463,98.6646,219.9342,138.5926,221.5363,0,U,43689,999,39369,.59054E-4,.86E-6,0
GEO-KOMPSAT-2A,2018-100A,2026-06-08T22:32:52.890720,1.00270485,.0002283,0.0504,132.2160,312.2158,279.3739,0,U,43823,999,2754,0,-.327E-5,0
METEOR-M2 2,2019-038A,2026-06-09T05:40:42.715200,14.24363727,.0002298,98.9147,147.4049,59.7586,300.3819,0,U,44387,999,36016,.64577E-4,.103E-5,0
ARKTIKA-M 1,2021-016A,2026-06-02T00:56:25.095840,2.00628509,.72832396,63.2379,59.8266,269.8643,14.6915,0,U,47719,999,3848,0,-.2E-5,0
FENGYUN 3E,2021-062A,2026-06-09T05:44:03.660864,14.19902509,.0002771,98.7498,163.7357,98.6637,261.4853,0,U,49008,999,25545,-.12273E-3,-.304E-5,0
GOES 18,2022-021A,2026-06-09T02:25:10.682976,1.00270989,.0000475,0.0417,137.9243,358.3935,20.4561,0,U,51850,999,651,0,.113E-5,0
NOAA 21 (JPSS-2),2022-150A,2026-06-09T03:21:40.531680,14.19564074,.0001188,98.7059,99.0644,173.4078,186.7114,0,U,54234,999,18540,.46091E-4,.54E-6,0
METEOSAT-12 (MTG-I1),2022-170C,2026-06-09T04:02:38.566752,1.00271637,.0003367,0.7287,21.5479,71.3802,224.8544,0,U,54743,999,1289,0,.8E-7,0
TIANMU-1 03,2023-039A,2026-06-09T05:23:04.581312,15.47057866,.0004162,97.5236,333.8838,118.9700,241.1967,0,U,55973,999,17960,.27296E-3,.13723E-3,0
TIANMU-1 04,2023-039B,2026-06-09T05:12:19.450656,15.47647348,.0004754,97.5172,333.0292,116.1305,244.0434,0,U,55974,999,17961,.27522E-3,.14125E-3,0
TIANMU-1 05,2023-039C,2026-06-09T04:54:49.814208,15.46982981,.0003803,97.5216,333.4814,133.5464,226.6101,0,U,55975,999,17958,.26543E-3,.13306E-3,0
TIANMU-1 06,2023-039D,2026-06-09T05:16:29.285760,15.47554577,.0004082,97.5225,334.1246,130.5184,229.6421,0,U,55976,999,17961,.27496E-3,.14064E-3,0
FENGYUN 3G,2023-055A,2026-06-09T03:00:18.071424,15.54457419,.0005565,49.9935,27.5514,167.7824,192.3279,0,U,56232,999,17875,.3417E-3,.22526E-3,0
METEOR-M2 3,2023-091A,2026-06-09T05:29:53.555712,14.24046087,.0003902,98.6092,215.3699,176.4936,183.6271,0,U,57166,999,15338,.12948E-4,-.13E-6,0
TIANMU-1 07,2023-101A,2026-06-09T04:26:48.942816,15.29713883,.0003637,97.2598,211.0377,138.0873,222.0647,0,U,57399,999,16042,.18316E-3,.5199E-4,0
TIANMU-1 08,2023-101B,2026-06-09T03:38:48.767712,15.29718168,.00052,97.2587,210.7769,134.7170,225.4495,0,U,57400,999,16041,.18553E-3,.5269E-4,0
TIANMU-1 09,2023-101C,2026-06-09T04:49:20.798688,15.29747682,.000403,97.2545,210.2447,145.3328,214.8176,0,U,57401,999,16042,.19827E-3,.564E-4,0
TIANMU-1 10,2023-101D,2026-06-09T04:02:31.866432,15.29717731,.0005625,97.2625,211.2553,147.3653,212.7936,0,U,57402,999,16041,.19196E-3,.5454E-4,0
FENGYUN 3F,2023-111A,2026-06-09T03:39:41.857920,14.19937754,.0001579,98.6841,230.3107,98.8052,261.3303,0,U,57490,999,14772,.42298E-4,.46E-6,0
ARKTIKA-M 2,2023-198A,2026-06-03T07:17:21.587712,2.00591941,.68985494,63.2209,155.9142,267.4684,18.7857,0,U,58584,999,1804,0,.15E-5,0
TIANMU-1 11,2023-205A,2026-06-09T02:58:45.601824,15.26911442,.000987,97.3453,181.8079,43.2103,316.9909,0,U,58645,999,13629,.18936E-3,.4937E-4,0
TIANMU-1 12,2023-205B,2026-06-09T03:50:10.449888,15.26873625,.0007715,97.3442,181.6004,30.7579,329.4111,0,U,58646,999,13628,.18841E-3,.4904E-4,0
TIANMU-1 13,2023-205C,2026-06-09T03:01:01.934112,15.26728063,.0006887,97.3469,181.8382,11.5592,348.5803,0,U,58647,999,13627,.1961E-3,.5084E-4,0
TIANMU-1 14,2023-205D,2026-06-09T02:40:04.092672,15.26772199,.0007865,97.3405,181.0120,14.9841,345.1630,0,U,58648,999,13627,.17954E-3,.4656E-4,0
TIANMU-1 19,2023-208A,2026-06-09T04:26:41.209152,15.31452164,.00045,97.4491,276.4456,1.5044,358.6210,0,U,58660,999,13610,.22881E-3,.6873E-4,0
TIANMU-1 20,2023-208B,2026-06-09T05:30:03.928032,15.32644193,.0006745,97.4433,277.1169,4.6243,355.5060,0,U,58661,999,13620,.21641E-3,.6746E-4,0
