FENGYUN 3D              
1 43010U 17072A   26160.18370395  .00000313  00000+0  16992-3 0  9992
2 43010  99.0126 134.4616 0002639  74.5875 285.5591 14.19738980443857
NOAA 20 (JPSS-1)        
1 43013U 17073A   26160.10685611  .00000046  00000+0  42880-4 0  9997
2 43013  98.7771  99.6414 0000438  43.3555 316.7656 14.19510284443320
GOES 17                 
1 43226U 18022A   26160.11025043 -.00000166  00000+0  00000+0 0  9993
2 43226   0.9157  85.8611 0000581  12.6123 109.2210  1.00271617 30349
SENTINEL-3B             
1 43437U 18039A   26160.19489507  .00000093  00000+0  56315-4 0  9995
2 43437  98.6249 227.8417 0000843  78.6879 281.4396 14.26739527422986
FENGYUN 2H              
1 43491U 18050A   26160.07241723 -.00000114  00000+0  00000+0 0  9991
2 43491   3.0094  79.1692 0001581 126.3944 157.4108  1.00271216 29352
METOP-C                 
1 43689U 18087A   26160.18465237  .00000086  00000+0  59054-4 0  9995
2 43689  98.6646 219.9342 0001463 138.5926 221.5363 14.21509952393699
GEO-KOMPSAT-2A          
1 43823U 18100A   26159.93950105 -.00000327  00000+0  00000+0 0  9996
2 43823   0.0504 132.2160 0002283 312.2158 279.3739  1.00270485 27548
METEOR-M2 2             
1 44387U 19038A   26160.23660550  .00000103  00000+0  64577-4 0  9995
2 44387  98.9147 147.4049 0002298  59.7586 300.3819 14.24363727360165
ARKTIKA-M 1             
1 47719U 21016A   26153.03917935 -.00000200  00000+0  00000+0 0  9993
2 47719  63.2379  59.8266 7283239 269.8643  14.6915  2.00628509 38489
FENGYUN 3E              
1 49008U 21062A   26160.23893126 -.00000304  00000+0 -12273-3 0  9997
2 49008  98.7498 163.7357 0002771  98.6637 261.4853 14.19902509255456
GOES 18                 
1 51850U 22021A   26160.10081809  .00000113  00000+0  00000+0 0  9991
2 51850   0.0417 137.9243 0000475 358.3935  20.4561  1.00270989  6510
NOAA 21 (JPSS-2)        
1 54234U 22150A   26160.14005245  .00000054  00000+0  46091-4 0  9996
2 54234  98.7059  99.0644 0001188 173.4078 186.7114 14.19564074185405
METEOSAT-12 (MTG-I1)    
1 54743U 22170C   26160.16850193  .00000008  00000+0  00000+0 0  9999
2 54743   0.7287  21.5479 0003367  71.3802 224.8544  1.00271637 12893
TIANMU-1 03             
1 55973U 23039A   26160.22435858  .00013723  00000+0  27296-3 0  9992
2 55973  97.5236 333.8838 0004162 118.9700 241.1967 15.47057866179600
TIANMU-1 04             
1 55974U 23039B   26160.21689179  .00014125  00000+0  27522-3 0  9998
2 55974  97.5172 333.0292 0004754 116.1305 244.0434 15.47647348179616
TIANMU-1 05             
1 55975U 23039C   26160.20474322  .00013306  00000+0  26543-3 0  9992
2 55975  97.5216 333.4814 0003803 133.5464 226.6101 15.46982981179580
TIANMU-1 06             
1 55976U 23039D   26160.21978340  .00014064  00000+0  27496-3 0  9993
2 55976  97.5225 334.1246 0004082 130.5184 229.6421 15.47554577179613
FENGYUN 3G              
1 56232U 23055A   26160.12520916  .00022526  00000+0  34170-3 0  9998
2 56232  49.9935  27.5514 0005565 167.7824 192.3279 15.54457419178755
METEOR-M2 3             
1 57166U 23091A   26160.22909208 -.00000013  00000+0  12948-4 0  9999
2 57166  98.6092 215.3699 0003902 176.4936 183.6271 14.24046087153380
TIANMU-1 07             
1 57399U 23101A   26160.18528869  .00005199  00000+0  18316-3 0  9997
2 57399  97.2598 211.0377 0003637 138.0873 222.0647 15.29713883160428
TIANMU-1 08             
1 57400U 23101B   26160.15195333  .00005269  00000+0  18553-3 0  9994
2 57400  97.2587 210.7769 0005200 134.7170 225.4495 15.29718168160419
TIANMU-1 09             
1 57401U 23101C   26160.20093517  .00005640  00000+0  19827-3 0  9990
2 57401  97.2545 210.2447 0004030 145.3328 214.8176 15.29747682160427
TIANMU-1 10             
1 57402U 23101D   26160.16842438  .00005454  00000+0  19196-3 0  9992
2 57402  97.2625 211.2553 0005625 147.3653 212.7936 15.29717731160412
FENGYUN 3F              
1 57490U 23111A   26160.15256780  .00000046  00000+0  42298-4 0  9990
2 57490  98.6841 230.3107 0001579  98.8052 261.3303 14.19937754147722
ARKTIKA-M 2             
1 58584U 23198A   26154.30372208  .00000150  00000+0  00000+0 0  9990
2 58584  63.2209 155.9142 6898549 267.4684  18.7857  2.00591941 18047
TIANMU-1 11             
1 58645U 23205A   26160.12413891  .00004937  00000+0  18936-3 0  9996
2 58645  97.3453 181.8079 0009870  43.2103 316.9909 15.26911442136295
TIANMU-1 12             
1 58646U 23205B   26160.15984317  .00004904  00000+0  18841-3 0  9995
2 58646  97.3442 181.6004 0007715  30.7579 329.4111 15.26873625136287
TIANMU-1 13             
1 58647U 23205C   26160.12571683  .00005084  00000+0  19610-3 0  9996
2 58647  97.3469 181.8382 0006887  11.5592 348.5803 15.26728063136273
TIANMU-1 14             
1 58648U 23205D   26160.11115848  .00004656  00000+0  17954-3 0  9996
2 58648  97.3405 181.0120 0007865  14.9841 345.1630 15.26772199136277
TIANMU-1 19             
1 58660U 23208A   26160.18519918  .00006873  00000+0  22881-3 0  9994
2 58660  97.4491 276.4456 0004500   1.5044 358.6210 15.31452164136106
TIANMU-1 20             
1 58661U 23208B   26160.22921213  .00006746  00000+0  21641-3 0  9997
2 58661  97.4433 277.1169 0006745   4.6243 355.5060 15.32644193136206
